ONEWEB-0207             
1 48242U 21031AJ  26136.20871526  .00000119  00000+0  28721-3 0  9999
2 48242  87.8944 296.0766 0001908 105.1930 254.9411 13.14504331244095
ONEWEB-0208             
1 48243U 21031AK  26136.19049640  .00000116  00000+0  27906-3 0  9993
2 48243  87.8938 296.0879 0001430  96.0750 264.0543 13.14503602244102
ONEWEB-0200             
1 48244U 21031AL  26136.00176771 -.00000178  00000+0 -51383-3 0  9996
2 48244  87.8937 296.1126 0001663  98.4506 261.6813 13.14503899244001
ONEWEB-0217             
1 48245U 21031AM  26135.48480553 -.00000116  00000+0 -34616-3 0  9996
2 48245  87.8941 296.2186 0001432  96.8445 263.2848 13.14504033243884
ONEWEB-0211             
1 48767U 21045A   26136.11051916  .00000088  00000+0  19739-3 0  9993
2 48767  87.8981 265.4815 0001207  92.6939 267.4329 13.16193964240220
ONEWEB-0223             
1 48768U 21045B   26136.09707725  .00000001  00000+0 -30128-4 0  9999
2 48768  87.8987 265.5838 0001560  89.4298 270.7012 13.15549219240185
ONEWEB-0230             
1 48769U 21045C   26136.06854267 -.00000128  00000+0 -37528-3 0  9992
2 48769  87.8978 265.6061 0002050  99.9825 260.1537 13.15553268240445
ONEWEB-0237             
1 48770U 21045D   26135.75323823 -.00000051  00000+0 -16840-3 0  9997
2 48770  87.8981 265.6708 0001819  91.5561 268.5778 13.15548874240127
ONEWEB-0235             
1 48771U 21045E   26136.10814615  .00000213  00000+0  53081-3 0  9998
2 48771  87.8989 265.5826 0001621  87.5406 272.5910 13.15549816240164
ONEWEB-0242             
1 48772U 21045F   26136.17787455  .00000009  00000+0 -11333-4 0  9996
2 48772  87.8989 265.5651 0001899  94.1195 266.0153 13.15546970240218
ONEWEB-0241             
1 48773U 21045G   26135.32858082  .00000608  00000+0  15811-2 0  9995
2 48773  87.8977 265.7565 0001400  93.3376 266.7915 13.15553407240016
ONEWEB-0243             
1 48774U 21045H   26136.12083992  .00000196  00000+0  48648-3 0  9992
2 48774  87.8981 265.6105 0002048  84.2164 275.9200 13.15550420240149
ONEWEB-0222             
1 48775U 21045J   26136.10419325  .00001078  00000+0  28294-2 0  9998
2 48775  87.8985 265.5785 0001755  94.5132 265.6199 13.15558066240181
ONEWEB-0244             
1 48776U 21045K   26136.05428553 -.00000051  00000+0 -16957-3 0  9992
2 48776  87.8997 265.5816 0001834  94.9752 265.1588 13.15549222240743
ONEWEB-0247             
1 48777U 21045L   26136.05112892  .00000097  00000+0  22352-3 0  9993
2 48777  87.8983 265.6190 0001899  74.3291 285.8049 13.15548647240185
ONEWEB-0245             
1 48778U 21045M   26136.12242808  .00000279  00000+0  70827-3 0  9995
2 48778  87.8990 265.5808 0001617 100.6007 259.5305 13.15549689240163
