[{"OBJECT_NAME":"ONEWEB-0207","OBJECT_ID":"2021-031AJ","EPOCH":"2026-05-16T05:00:32.998464","MEAN_MOTION":13.14504331,"ECCENTRICITY":0.0001908,"INCLINATION":87.8944,"RA_OF_ASC_NODE":296.0766,"ARG_OF_PERICENTER":105.193,"MEAN_ANOMALY":254.9411,"EPHEMERIS_TYPE":0,"CLASSIFICATION_TYPE":"U","NORAD_CAT_ID":48242,"ELEMENT_SET_NO":999,"REV_AT_EPOCH":24409,"BSTAR":0.00028721000000000004,"MEAN_MOTION_DOT":1.19e-06,"MEAN_MOTION_DDOT":0.0},{"OBJECT_NAME":"ONEWEB-0208","OBJECT_ID":"2021-031AK","EPOCH":"2026-05-16T04:34:18.888960","MEAN_MOTION":13.14503602,"ECCENTRICITY":0.000143,"INCLINATION":87.8938,"RA_OF_ASC_NODE":296.0879,"ARG_OF_PERICENTER":96.075,"MEAN_ANOMALY":264.0543,"EPHEMERIS_TYPE":0,"CLASSIFICATION_TYPE":"U","NORAD_CAT_ID":48243,"ELEMENT_SET_NO":999,"REV_AT_EPOCH":24410,"BSTAR":0.00027906,"MEAN_MOTION_DOT":1.16e-06,"MEAN_MOTION_DDOT":0.0},{"OBJECT_NAME":"ONEWEB-0200","OBJECT_ID":"2021-031AL","EPOCH":"2026-05-16T00:02:32.730144","MEAN_MOTION":13.14503899,"ECCENTRICITY":0.0001663,"INCLINATION":87.8937,"RA_OF_ASC_NODE":296.1126,"ARG_OF_PERICENTER":98.4506,"MEAN_ANOMALY":261.6813,"EPHEMERIS_TYPE":0,"CLASSIFICATION_TYPE":"U","NORAD_CAT_ID":48244,"ELEMENT_SET_NO":999,"REV_AT_EPOCH":24400,"BSTAR":-0.0005138300000000001,"MEAN_MOTION_DOT":-1.78e-06,"MEAN_MOTION_DDOT":0.0},{"OBJECT_NAME":"ONEWEB-0217","OBJECT_ID":"2021-031AM","EPOCH":"2026-05-15T11:38:07.197792","MEAN_MOTION":13.14504033,"ECCENTRICITY":0.0001432,"INCLINATION":87.8941,"RA_OF_ASC_NODE":296.2186,"ARG_OF_PERICENTER":96.8445,"MEAN_ANOMALY":263.2848,"EPHEMERIS_TYPE":0,"CLASSIFICATION_TYPE":"U","NORAD_CAT_ID":48245,"ELEMENT_SET_NO":999,"REV_AT_EPOCH":24388,"BSTAR":-0.00034616000000000003,"MEAN_MOTION_DOT":-1.16e-06,"MEAN_MOTION_DDOT":0.0},{"OBJECT_NAME":"ONEWEB-0211","OBJECT_ID":"2021-045A","EPOCH":"2026-05-16T02:39:08.855424","MEAN_MOTION":13.16193964,"ECCENTRICITY":0.0001207,"INCLINATION":87.8981,"RA_OF_ASC_NODE":265.4815,"ARG_OF_PERICENTER":92.6939,"MEAN_ANOMALY":267.4329,"EPHEMERIS_TYPE":0,"CLASSIFICATION_TYPE":"U","NORAD_CAT_ID":48767,"ELEMENT_SET_NO":999,"REV_AT_EPOCH":24022,"BSTAR":0.00019739,"MEAN_MOTION_DOT":8.8e-07,"MEAN_MOTION_DDOT":0.0},{"OBJECT_NAME":"ONEWEB-0223","OBJECT_ID":"2021-045B","EPOCH":"2026-05-16T02:19:47.474400","MEAN_MOTION":13.15549219,"ECCENTRICITY":0.000156,"INCLINATION":87.8987,"RA_OF_ASC_NODE":265.5838,"ARG_OF_PERICENTER":89.4298,"MEAN_ANOMALY":270.7012,"EPHEMERIS_TYPE":0,"CLASSIFICATION_TYPE":"U","NORAD_CAT_ID":48768,"ELEMENT_SET_NO":999,"REV_AT_EPOCH":24018,"BSTAR":-3.0128e-05,"MEAN_MOTION_DOT":1e-08,"MEAN_MOTION_DDOT":0.0},{"OBJECT_NAME":"ONEWEB-0230","OBJECT_ID":"2021-045C","EPOCH":"2026-05-16T01:38:42.086688","MEAN_MOTION":13.15553268,"ECCENTRICITY":0.000205,"INCLINATION":87.8978,"RA_OF_ASC_NODE":265.6061,"ARG_OF_PERICENTER":99.9825,"MEAN_ANOMALY":260.1537,"EPHEMERIS_TYPE":0,"CLASSIFICATION_TYPE":"U","NORAD_CAT_ID":48769,"ELEMENT_SET_NO":999,"REV_AT_EPOCH":24044,"BSTAR":-0.00037528,"MEAN_MOTION_DOT":-1.28e-06,"MEAN_MOTION_DDOT":0.0},{"OBJECT_NAME":"ONEWEB-0237","OBJECT_ID":"2021-045D","EPOCH":"2026-05-15T18:04:39.783072","MEAN_MOTION":13.15548874,"ECCENTRICITY":0.0001819,"INCLINATION":87.8981,"RA_OF_ASC_NODE":265.6708,"ARG_OF_PERICENTER":91.5561,"MEAN_ANOMALY":268.5778,"EPHEMERIS_TYPE":0,"CLASSIFICATION_TYPE":"U","NORAD_CAT_ID":48770,"ELEMENT_SET_NO":999,"REV_AT_EPOCH":24012,"BSTAR":-0.0001684,"MEAN_MOTION_DOT":-5.1e-07,"MEAN_MOTION_DDOT":0.0},{"OBJECT_NAME":"ONEWEB-0235","OBJECT_ID":"2021-045E","EPOCH":"2026-05-16T02:35:43.827360","MEAN_MOTION":13.15549816,"ECCENTRICITY":0.0001621,"INCLINATION":87.8989,"RA_OF_ASC_NODE":265.5826,"ARG_OF_PERICENTER":87.5406,"MEAN_ANOMALY":272.591,"EPHEMERIS_TYPE":0,"CLASSIFICATION_TYPE":"U","NORAD_CAT_ID":48771,"ELEMENT_SET_NO":999,"REV_AT_EPOCH":24016,"BSTAR":0.00053081,"MEAN_MOTION_DOT":2.13e-06,"MEAN_MOTION_DDOT":0.0},{"OBJECT_NAME":"ONEWEB-0242","OBJECT_ID":"2021-045F","EPOCH":"2026-05-16T04:16:08.361120","MEAN_MOTION":13.1554697,"ECCENTRICITY":0.0001899,"INCLINATION":87.8989,"RA_OF_ASC_NODE":265.5651,"ARG_OF_PERICENTER":94.1195,"MEAN_ANOMALY":266.0153,"EPHEMERIS_TYPE":0,"CLASSIFICATION_TYPE":"U","NORAD_CAT_ID":48772,"ELEMENT_SET_NO":999,"REV_AT_EPOCH":24021,"BSTAR":-1.1333e-05,"MEAN_MOTION_DOT":9e-08,"MEAN_MOTION_DDOT":0.0},{"OBJECT_NAME":"ONEWEB-0241","OBJECT_ID":"2021-045G","EPOCH":"2026-05-15T07:53:09.382848","MEAN_MOTION":13.15553407,"ECCENTRICITY":0.00014,"INCLINATION":87.8977,"RA_OF_ASC_NODE":265.7565,"ARG_OF_PERICENTER":93.3376,"MEAN_ANOMALY":266.7915,"EPHEMERIS_TYPE":0,"CLASSIFICATION_TYPE":"U","NORAD_CAT_ID":48773,"ELEMENT_SET_NO":999,"REV_AT_EPOCH":24001,"BSTAR":0.0015811,"MEAN_MOTION_DOT":6.08e-06,"MEAN_MOTION_DDOT":0.0},{"OBJECT_NAME":"ONEWEB-0243","OBJECT_ID":"2021-045H","EPOCH":"2026-05-16T02:54:00.569088","MEAN_MOTION":13.1555042,"ECCENTRICITY":0.0002048,"INCLINATION":87.8981,"RA_OF_ASC_NODE":265.6105,"ARG_OF_PERICENTER":84.2164,"MEAN_ANOMALY":275.92,"EPHEMERIS_TYPE":0,"CLASSIFICATION_TYPE":"U","NORAD_CAT_ID":48774,"ELEMENT_SET_NO":999,"REV_AT_EPOCH":24014,"BSTAR":0.00048648,"MEAN_MOTION_DOT":1.96e-06,"MEAN_MOTION_DDOT":0.0},{"OBJECT_NAME":"ONEWEB-0222","OBJECT_ID":"2021-045J","EPOCH":"2026-05-16T02:30:02.296800","MEAN_MOTION":13.15558066,"ECCENTRICITY":0.0001755,"INCLINATION":87.8985,"RA_OF_ASC_NODE":265.5785,"ARG_OF_PERICENTER":94.5132,"MEAN_ANOMALY":265.6199,"EPHEMERIS_TYPE":0,"CLASSIFICATION_TYPE":"U","NORAD_CAT_ID":48775,"ELEMENT_SET_NO":999,"REV_AT_EPOCH":24018,"BSTAR":0.0028294,"MEAN_MOTION_DOT":1.078e-05,"MEAN_MOTION_DDOT":0.0},{"OBJECT_NAME":"ONEWEB-0244","OBJECT_ID":"2021-045K","EPOCH":"2026-05-16T01:18:10.269792","MEAN_MOTION":13.15549222,"ECCENTRICITY":0.0001834,"INCLINATION":87.8997,"RA_OF_ASC_NODE":265.5816,"ARG_OF_PERICENTER":94.9752,"MEAN_ANOMALY":265.1588,"EPHEMERIS_TYPE":0,"CLASSIFICATION_TYPE":"U","NORAD_CAT_ID":48776,"ELEMENT_SET_NO":999,"REV_AT_EPOCH":24074,"BSTAR":-0.00016957,"MEAN_MOTION_DOT":-5.1e-07,"MEAN_MOTION_DDOT":0.0},{"OBJECT_NAME":"ONEWEB-0247","OBJECT_ID":"2021-045L","EPOCH":"2026-05-16T01:13:37.538688","MEAN_MOTION":13.15548647,"ECCENTRICITY":0.0001899,"INCLINATION":87.8983,"RA_OF_ASC_NODE":265.619,"ARG_OF_PERICENTER":74.3291,"MEAN_ANOMALY":285.8049,"EPHEMERIS_TYPE":0,"CLASSIFICATION_TYPE":"U","NORAD_CAT_ID":48777,"ELEMENT_SET_NO":999,"REV_AT_EPOCH":24018,"BSTAR":0.00022352,"MEAN_MOTION_DOT":9.7e-07,"MEAN_MOTION_DDOT":0.0},{"OBJECT_NAME":"ONEWEB-0245","OBJECT_ID":"2021-045M","EPOCH":"2026-05-16T02:56:17.786112","MEAN_MOTION":13.15549689,"ECCENTRICITY":0.0001617,"INCLINATION":87.899,"RA_OF_ASC_NODE":265.5808,"ARG_OF_PERICENTER":100.6007,"MEAN_ANOMALY":259.5305,"EPHEMERIS_TYPE":0,"CLASSIFICATION_TYPE":"U","NORAD_CAT_ID":48778,"ELEMENT_SET_NO":999,"REV_AT_EPOCH":24016,"BSTAR":0.00070827,"MEAN_MOTION_DOT":2.79e-06,"MEAN_MOTION_DDOT":0.0}]